DIDO-2                  
1 42000U 17008BE  23359.89909656  .00049344  00000+0  82623-3 0  9993
2 42000  97.1742  54.0235 0005894  63.1060 297.0794 15.51700067381539
AALTO-1                 
1 42775U 17036L   23360.07101870  .00038571  00000+0  78837-3 0  9999
2 42775  97.1305  25.5895 0009181 119.7781 240.4383 15.46006044362059
URSA MAIOR              
1 42776U 17036M   23360.03668920  .00049596  00000+0  86789-3 0  9994
2 42776  97.1294  27.7194 0008673 112.9846 247.2322 15.50431189362173
DIAMOND RED             
1 42783U 17036U   23359.82555932  .00079237  00000+0  10535-2 0  9995
2 42783  97.1233  32.0412 0006148 112.6991 247.4915 15.57907371362436
PEGASUS                 
1 42784U 17036V   23360.05961458  .00644210  17879-3  15578-2 0  9994
2 42784  97.1047  38.8598 0002117  93.7894 266.3625 15.96385321362922
DIAMOND GREEN           
1 42785U 17036W   23360.08635474  .00097774  00000+0  11097-2 0  9997
2 42785  97.1209  33.0513 0005953 107.8283 252.3626 15.62015919362514
DIAMOND BLUE            
1 42786U 17036X   23359.60811075  .00088800  00000+0  11074-2 0  9992
2 42786  97.1239  32.2309 0006447 107.1753 253.0211 15.59575952362495
CICERO 6                
1 42793U 17036AE  23360.09124527  .00053902  00000+0  86816-3 0  9996
2 42793  97.1212  31.5710 0006875 108.7545 251.4455 15.52760153362521
CORVUS BC2              
1 42846U 17042X   23359.84536105  .00003596  00000+0  32485-3 0  9999
2 42846  97.3719 189.8598 0007443 292.2878  67.7555 14.96043381351368
CORVUS BC1              
1 42847U 17042Y   23359.48892734  .00005277  00000+0  47290-3 0  9991
2 42847  97.3717 189.8989 0006674 291.7873  68.2639 14.96166579351325
MIRATA                  
1 43015U 17073C   23359.68284369  .00019919  00000+0  10989-2 0  9996
2 43015  97.6063 242.3914 0192944 132.7522 229.0120 14.99414467330115
MAKERSAT 0              
1 43016U 17073D   23359.65106838  .00011196  00000+0  69503-3 0  9994
2 43016  97.6067 238.9180 0212220 147.2092 214.2507 14.92978719329839
CORVUS BC3              
1 43118U 18004H   23359.76846593  .00060644  00000+0  99190-3 0  9990
2 43118  97.3073  75.3008 0005460 150.0683 210.0883 15.52311233331600
GOMX-4B                 
1 43196U 18015E   23359.89430976  .00034176  00000+0  69846-3 0  9992
2 43196  97.5933 157.9783 0010475 235.4612 124.5648 15.46024000328466
GOMX-4A                 
1 43197U 18015F   23360.11675021  .00044162  00000+0  75993-3 0  9998
2 43197  97.5900 161.4829 0009404 226.1546 133.8929 15.50927203328721
CUBEBEL-1 (BSUSAT-1)    
1 43666U 18083E   23360.13403646  .00133315  00000+0  14610-2 0  9995
2 43666  97.3520  35.2610 0006379 123.7329 236.4538 15.62798619286889
CICERO 10               
1 43690U 18088A   23359.88479567  .00050538  00000+0  95498-3 0  9991
2 43690  85.0261 301.8870 0005411 197.2629 162.8444 15.48211203285023
PROXIMA I               
1 43694U 18088E   23359.83883357  .00071985  00000+0  10714-2 0  9992
2 43694  85.0179 296.5344 0009225 154.6485 205.5229 15.54823344285382
PROXIMA II              
1 43696U 18088G   23359.87708151  .00067000  00000+0  10101-2 0  9999
2 43696  85.0182 296.6071 0009257 155.0323 205.1386 15.54485274285372
SIRION PATHFINDER-2     
1 43759U 18099B   23360.10149737  .00006132  00000+0  49022-3 0  9992
2 43759  97.5453  56.2277 0013281 157.3915 202.7897 15.00507096276382
CORVUS BC4              
1 43767U 18099K   23360.13106277  .00004743  00000+0  38549-3 0  9994
2 43767  97.5445  53.9472 0009213 202.8013 157.2803 15.00019545276285
MOVE-II                 
1 43780U 18099Y   23359.71559461  .00018518  00000+0  11735-2 0  9990
2 43780  97.5491  60.0783 0007078 211.6644 148.4160 15.08969681276562
SPACEBEE-7              
1 43816U 18099BL  23359.65469156  .00014539  00000+0  98602-3 0  9992
2 43816  97.5770  60.9743 0011369 161.7058 198.4580 15.06485135276093
SPACEBEE-5              
1 43817U 18099BM  23359.66666697  .00149810  00000+0  30082-2 0  9991
2 43817  97.5666  74.9610 0001240 132.9026 227.2327 15.46100636276935
SPACEBEE-6              
1 43818U 18099BN  23359.73888543  .00025814  00000+0  14661-2 0  9998
2 43818  97.5679  64.2757 0010531 172.1925 187.9472 15.12851625276455
SHIELDS 1               
1 43850U 18104B   23359.60780976  .00012844  00000+0  40602-3 0  9992
2 43850  85.0251  41.0887 0012327  17.9321 342.2359 15.32588920279389
STF-1                   
1 43852U 18104D   23359.59111970  .00165213  00000+0  13326-2 0  9995
2 43852  85.0110  34.2173 0003743  21.7490 338.3936 15.70375978280107
ZACUBE-2                
1 43907U 18111AH  23360.15688671  .00083776  00000+0  10890-2 0  9991
2 43907  97.1016 236.8042 0007972 220.6676 139.3986 15.58479307278845
LUME 1                  
1 43908U 18111AJ  23360.11443606  .00193070  00000+0  12260-2 0  9997
2 43908  97.1022 243.0743 0005103 170.7423 189.3938 15.75924318279254
SONATE                  
1 44400U 19038Q   23359.92541316  .00018490  00000+0  70258-3 0  9992
2 44400  97.7022 342.4484 0018970   8.3836 351.7715 15.26691886247434
LUCKY-7                 
1 44406U 19038W   23359.92614018  .00027954  00000+0  90615-3 0  9992
2 44406  97.6966 344.7496 0016522   0.6708 359.4551 15.31830003247590
BEESAT 9                
1 44412U 19038AC  23359.70718301  .00065112  00000+0  13625-2 0  9998
2 44412  97.6845 348.6735 0011036 357.6056   2.5137 15.45171240247567
JAISAT-1                
1 44419U 19038F   23359.89246238  .00060015  00000+0  12581-2 0  9997
2 44419  97.6830 349.9872 0010278 353.9030   6.2091 15.45149688247978
DUCHIFAT-3              
1 44854U 19089C   23360.13209109  .00013266  00000+0  79018-3 0  9996
2 44854  36.9611  20.6605 0006905 115.0997 245.0466 15.10595936221820
M2 PATHFINDER           
1 45727U 20037E   23359.45113811  .00004289  00000+0  39128-3 0  9991
2 45727  97.7637 172.1252 0011593 355.0216   5.0887 14.95572914189819
NETSAT-4                
1 46504U 20068U   23359.80120888  .00011342  00000+0  68229-3 0  9992
2 46504  97.7863 308.0782 0008668 232.7305 127.3135 15.10984036177801
NETSAT-3                
1 46505U 20068V   23359.86634321  .00010476  00000+0  63683-3 0  9997
2 46505  97.7839 307.8368 0007769 242.5014 117.5426 15.10632614177816
NETSAT-1                
1 46506U 20068W   23359.84264459  .00007936  00000+0  49479-3 0  9991
2 46506  97.7854 307.5716 0006310 254.6278 105.4253 15.09804329177798
NETSAT-2                
1 46507U 20068X   23359.80851572  .00011740  00000+0  70805-3 0  9991
2 46507  97.7848 307.7751 0005655 264.0586  95.9999 15.10900368177759
WILDTRACKCUBE-SIMBA     
1 47941U 21022K   23360.16034960  .00012898  00000+0  66663-3 0  9992
2 47941  97.4795 253.9936 0018803  36.7359 323.5159 15.16251228152052
BEESAT-6                
1 47957U 21022AB  23359.67116316  .00052901  00000+0  17110-2 0  9990
2 47957  97.4731 258.2077 0014185  27.8867 332.3131 15.31788222152107
SMOG-1                  
1 47964U 21022AJ  23359.70575523  .00051270  00000+0  15832-2 0  9998
2 47964  97.4821 260.9421 0012159  13.6260 346.5308 15.33304626151282
BCCSAT-1                
1 48041U 21022AK  23359.72975806  .00040596  00000+0  14443-2 0  9991
2 48041  97.4818 258.9725 0011035  17.1076 343.0533 15.28800944151139
BEESAT-5                
1 48083U 21022AM  23359.71563546  .00061273  00000+0  18141-2 0  9994
2 48083  97.4585 258.7611 0013113  26.2494 333.9411 15.34578459151304
BEESAT-7                
1 48084U 21022AN  23359.19439786  .00056739  00000+0  18118-2 0  9990
2 48084  97.4752 258.0376 0014335  23.1490 337.0394 15.32177522150770
BEESAT-8                
1 48085U 21022AP  23358.52729585  .00026229  00000+0  11425-2 0  9991
2 48085  97.4874 255.2291 0016652  35.1194 325.1136 15.22059692151071
LEDSAT                  
1 49069U 21073D   23359.18142526  .00015287  00000+0  73465-3 0  9992
2 49069  97.4628  67.1495 0021705 173.8065 186.3442 15.18705172129842
